0 ANIK D2 R/B(PAM-D)
1 15387U 84113D   13281.64524963  .00001813  00000-0  20534-2 0  5934
2 15387 025.6432 318.8147 7110450 229.3304 157.0810 02.44895707249813
0 ANIK D2 R/B(PAM-D)
1 15387U 84113D   13283.88269080  .00001890  00000-0  22574-2 0  5940
2 15387 025.6400 317.9123 7110307 230.8634 329.6775 02.44908089249877
0 ANIK D2 R/B(PAM-D)
1 15387U 84113D   13286.47728799  .00001343  00000-0  21002-2 0  5954
2 15387 025.6362 316.8660 7110207 232.6408 097.2625 02.44919587249930
0 ANIK D2 R/B(PAM-D)
1 15387U 84113D   13289.73919216  .00001334  00000-0  22717-2 0  5967
2 15387 025.6316 315.5500 7109923 234.8789 093.3451 02.44938412250010
0 ANIK D2 R/B(PAM-D)
1 15387U 84113D   13290.43560699  .00001381  00000-0  22736-2 0  5977
2 15387 025.6303 315.2682 7109839 235.3579 347.4165 02.44942514250038
0 ANIK D2 R/B(PAM-D)
1 15387U 84113D   13292.48020457  .00001420  00000-0  20818-2 0  5981
2 15387 025.6280 314.4447 7109542 236.7589 350.3146 02.44952068250081
0 ANIK D2 R/B(PAM-D)
1 15387U 84113D   13294.52291279  .00001493  00000-0  19495-2 0  5990
2 15387 025.6256 313.6215 7109278 238.1574 351.6228 02.44962363250134
0 ANIK D2 R/B(PAM-D)
1 15387U 84113D   13295.41203027  .00001642  00000-0  20692-2 0  6003
2 15387 025.6246 313.2642 7109168 238.7651 055.6904 02.44966347250153
